{
    "links": {
        "self": "http://www.neowsapp.com/rest/v1/neo/3843114?api_key=iIulBulltgU6a56xZRHN4H3l9WmuAYTsLGpBGhQ2"
    },
    "id": "3843114",
    "neo_reference_id": "3843114",
    "name": "(2019 NL1)",
    "designation": "2019 NL1",
    "nasa_jpl_url": "http://ssd.jpl.nasa.gov/sbdb.cgi?sstr=3843114",
    "absolute_magnitude_h": 27.6,
    "estimated_diameter": {
        "kilometers": {
            "estimated_diameter_min": 0.0080270317,
            "estimated_diameter_max": 0.0179489885
        },
        "meters": {
            "estimated_diameter_min": 8.0270316728,
            "estimated_diameter_max": 17.948988478
        },
        "miles": {
            "estimated_diameter_min": 0.0049877647,
            "estimated_diameter_max": 0.0111529809
        },
        "feet": {
            "estimated_diameter_min": 26.3354065935,
            "estimated_diameter_max": 58.8877593581
        }
    },
    "is_potentially_hazardous_asteroid": false,
    "close_approach_data": [
        {
            "close_approach_date": "2019-07-03",
            "close_approach_date_full": "2019-Jul-03 13:01",
            "epoch_date_close_approach": 1562158860000,
            "relative_velocity": {
                "kilometers_per_second": "6.5667010726",
                "kilometers_per_hour": "23640.1238613356",
                "miles_per_hour": "14689.0536292838"
            },
            "miss_distance": {
                "astronomical": "0.0148129201",
                "lunar": "5.7622259189",
                "kilometers": "2215981.295440187",
                "miles": "1376946.9271091006"
            },
            "orbiting_body": "Earth"
        },
        {
            "close_approach_date": "2022-08-02",
            "close_approach_date_full": "2022-Aug-02 22:03",
            "epoch_date_close_approach": 1659477780000,
            "relative_velocity": {
                "kilometers_per_second": "10.0511459013",
                "kilometers_per_hour": "36184.1252447167",
                "miles_per_hour": "22483.4082666408"
            },
            "miss_distance": {
                "astronomical": "0.0669195539",
                "lunar": "26.0317064671",
                "kilometers": "10011022.724790193",
                "miles": "6220561.0699349434"
            },
            "orbiting_body": "Mars"
        }
    ],
    "orbital_data": {
        "orbit_id": "2",
        "orbit_determination_date": "2019-07-08 06:34:35",
        "first_observation_date": "2019-07-04",
        "last_observation_date": "2019-07-08",
        "data_arc_in_days": 4,
        "observations_used": 21,
        "orbit_uncertainty": "8",
        "minimum_orbit_intersection": ".0141791",
        "jupiter_tisserand_invariant": "3.670",
        "epoch_osculation": "2458669.5",
        "eccentricity": ".4882038707177407",
        "semi_major_axis": "2.013295893631704",
        "inclination": "1.293963924332081",
        "ascending_node_longitude": "275.0965100198127",
        "orbital_period": "1043.421637516345",
        "perihelion_distance": "1.030397045460573",
        "perihelion_argument": "10.17901830870283",
        "aphelion_distance": "2.996194741802834",
        "perihelion_time": "2458671.618768179019",
        "mean_anomaly": "359.2689853104231",
        "mean_motion": ".3450187221120961",
        "equinox": "J2000",
        "orbit_class": {
            "orbit_class_type": "AMO",
            "orbit_class_description": "Near-Earth asteroid orbits similar to that of 1221 Amor",
            "orbit_class_range": "1.017 AU < q (perihelion) < 1.3 AU"
        }
    },
    "is_sentry_object": false
}